{"type": "FeatureCollection", "features": [ {"type": "Feature", "properties": {"norad_id": 66494, "name": "STARLINK-35689", "group": "last-30-days", "lat": -41.631412284515754, "lon": 6.85201073383516, "alt_km": 451.2197277644318, "timestamp": "2025-12-14T14:39:28.131123+00:00", "meta": {"OBJECT_NAME": "STARLINK-35689", "OBJECT_ID": "2025-263K", "EPOCH": "2025-12-13T22:00:00.999936", "MEAN_MOTION": 15.4223623, "ECCENTRICITY": 0.00010203, "INCLINATION": 42.9999, "RA_OF_ASC_NODE": 118.3315, "ARG_OF_PERICENTER": 274.1899, "MEAN_ANOMALY": 88.728, "EPHEMERIS_TYPE": 0, "CLASSIFICATION_TYPE": "U", "NORAD_CAT_ID": 66494, "ELEMENT_SET_NO": 999, "REV_AT_EPOCH": 582, "BSTAR": -0.053835366, "MEAN_MOTION_DOT": -0.02096361, "MEAN_MOTION_DDOT": 0}, "tle": {"line1": "1 66494U 25263K   25347.91667824 -.02096361  00000+0 -53835-1 0  9994", "line2": "2 66494  42.9999 118.3315 0001020 274.1899  88.7280 15.42236230  5824"}}, "geometry": {"type": "Point", "coordinates": [6.85201073383516, -41.631412284515754]}}, {"type": "Feature", "properties": {"norad_id": 66495, "name": "STARLINK-35832", "group": "last-30-days", "lat": -32.54031199061841, "lon": 70.9877287001742, "alt_km": 422.21299526264283, "timestamp": "2025-12-14T14:39:28.131134+00:00", "meta": {"OBJECT_NAME": "STARLINK-35832", "OBJECT_ID": "2025-263L", "EPOCH": "2025-12-12T19:33:21.941856", "MEAN_MOTION": 15.49798239, "ECCENTRICITY": 0.00024982, "INCLINATION": 42.9996, "RA_OF_ASC_NODE": 124.6875, "ARG_OF_PERICENTER": 262.5587, "MEAN_ANOMALY": 97.4989, "EPHEMERIS_TYPE": 0, "CLASSIFICATION_TYPE": "U", "NORAD_CAT_ID": 66495, "ELEMENT_SET_NO": 999, "REV_AT_EPOCH": 557, "BSTAR": -0.0060463366, "MEAN_MOTION_DOT": -0.00331191, "MEAN_MOTION_DDOT": 0}, "tle": {"line1": "1 66495U 25263L   25346.81483729 -.00331191  00000+0 -60463-2 0  9990", "line2": "2 66495  42.9996 124.6875 0002498 262.5587  97.4989 15.49798239  5572"}}, "geometry": {"type": "Point", "coordinates": [70.9877287001742, -32.54031199061841]}}, {"type": "Feature", "properties": {"norad_id": 66496, "name": "STARLINK-35909", "group": "last-30-days", "lat": -26.060391994430983, "lon": 82.52236974622322, "alt_km": 415.3510673153751, "timestamp": "2025-12-14T14:39:28.131144+00:00", "meta": {"OBJECT_NAME": "STARLINK-35909", "OBJECT_ID": "2025-263M", "EPOCH": "2025-12-13T18:44:02.295168", "MEAN_MOTION": 15.50616189, "ECCENTRICITY": 0.00034269, "INCLINATION": 43.0017, "RA_OF_ASC_NODE": 119.0329, "ARG_OF_PERICENTER": 269.6828, "MEAN_ANOMALY": 90.364, "EPHEMERIS_TYPE": 0, "CLASSIFICATION_TYPE": "U", "NORAD_CAT_ID": 66496, "ELEMENT_SET_NO": 999, "REV_AT_EPOCH": 572, "BSTAR": 0.0012706593, "MEAN_MOTION_DOT": 0.0007503, "MEAN_MOTION_DDOT": 0}, "tle": {"line1": "1 66496U 25263M   25347.78058212  .00075030  00000+0  12707-2 0  9996", "line2": "2 66496  43.0017 119.0329 0003426 269.6828  90.3640 15.50616189  5727"}}, "geometry": {"type": "Point", "coordinates": [82.52236974622322, -26.060391994430983]}}, {"type": "Feature", "properties": {"norad_id": 66497, "name": "STARLINK-35899", "group": "last-30-days", "lat": -25.08297142927819, "lon": 84.01790450288023, "alt_km": 416.527240068066, "timestamp": "2025-12-14T14:39:28.131155+00:00", "meta": {"OBJECT_NAME": "STARLINK-35899", "OBJECT_ID": "2025-263N", "EPOCH": "2025-12-13T20:16:18.832224", "MEAN_MOTION": 15.50551506, "ECCENTRICITY": 0.00012877, "INCLINATION": 42.9995, "RA_OF_ASC_NODE": 118.6534, "ARG_OF_PERICENTER": 270.1228, "MEAN_ANOMALY": 89.9484, "EPHEMERIS_TYPE": 0, "CLASSIFICATION_TYPE": "U", "NORAD_CAT_ID": 66497, "ELEMENT_SET_NO": 999, "REV_AT_EPOCH": 573, "BSTAR": 0.0013367357, "MEAN_MOTION_DOT": 0.00078794, "MEAN_MOTION_DDOT": 0}, "tle": {"line1": "1 66497U 25263N   25347.84466241  .00078794  00000+0  13367-2 0  9992", "line2": "2 66497  42.9995 118.6534 0001287 270.1228  89.9484 15.50551506  5730"}}, "geometry": {"type": "Point", "coordinates": [84.01790450288023, -25.08297142927819]}}, {"type": "Feature", "properties": {"norad_id": 66498, "name": "STARLINK-35907", "group": "last-30-days", "lat": 6.170647985709495, "lon": -72.12495062987054, "alt_km": 443.1697265062585, "timestamp": "2025-12-14T14:39:28.131165+00:00", "meta": {"OBJECT_NAME": "STARLINK-35907", "OBJECT_ID": "2025-263P", "EPOCH": "2025-12-13T22:00:00.999936", "MEAN_MOTION": 15.40652807, "ECCENTRICITY": 0.00016416, "INCLINATION": 42.9997, "RA_OF_ASC_NODE": 118.5383, "ARG_OF_PERICENTER": 272.077, "MEAN_ANOMALY": 4.5861, "EPHEMERIS_TYPE": 0, "CLASSIFICATION_TYPE": "U", "NORAD_CAT_ID": 66498, "ELEMENT_SET_NO": 999, "REV_AT_EPOCH": 582, "BSTAR": 0.0014205243, "MEAN_MOTION_DOT": 0.00059406, "MEAN_MOTION_DDOT": 0}, "tle": {"line1": "1 66498U 25263P   25347.91667824  .00059406  00000+0  14205-2 0  9992", "line2": "2 66498  42.9997 118.5383 0001641 272.0770   4.5861 15.40652807  5828"}}, "geometry": {"type": "Point", "coordinates": [-72.12495062987054, 6.170647985709495]}}, {"type": "Feature", "properties": {"norad_id": 66499, "name": "STARLINK-35816", "group": "last-30-days", "lat": -18.84417580851508, "lon": -44.06842787569113, "alt_km": 445.52283285685553, "timestamp": "2025-12-14T14:39:28.131176+00:00", "meta": {"OBJECT_NAME": "STARLINK-35816", "OBJECT_ID": "2025-263Q", "EPOCH": "2025-12-13T22:00:00.999936", "MEAN_MOTION": 15.40699226, "ECCENTRICITY": 0.00016952, "INCLINATION": 42.9997, "RA_OF_ASC_NODE": 118.4479, "ARG_OF_PERICENTER": 290.7243, "MEAN_ANOMALY": 23.1533, "EPHEMERIS_TYPE": 0, "CLASSIFICATION_TYPE": "U", "NORAD_CAT_ID": 66499, "ELEMENT_SET_NO": 999, "REV_AT_EPOCH": 582, "BSTAR": 0.0018022358, "MEAN_MOTION_DOT": 0.0007573, "MEAN_MOTION_DDOT": 0}, "tle": {"line1": "1 66499U 25263Q   25347.91667824  .00075730  00000+0  18022-2 0  9992", "line2": "2 66499  42.9997 118.4479 0001695 290.7243  23.1533 15.40699226  5824"}}, "geometry": {"type": "Point", "coordinates": [-44.06842787569113, -18.84417580851508]}}, {"type": "Feature", "properties": {"norad_id": 66500, "name": "STARLINK-35894", "group": "last-30-days", "lat": 33.83592234850696, "lon": -111.35234701840085, "alt_km": 459.63832408920825, "timestamp": "2025-12-14T14:39:28.131186+00:00", "meta": {"OBJECT_NAME": "STARLINK-35894", "OBJECT_ID": "2025-263R", "EPOCH": "2025-12-13T22:00:00.999936", "MEAN_MOTION": 15.36681218, "ECCENTRICITY": 0.0001058, "INCLINATION": 42.9996, "RA_OF_ASC_NODE": 118.6186, "ARG_OF_PERICENTER": 269.1523, "MEAN_ANOMALY": 335.3582, "EPHEMERIS_TYPE": 0, "CLASSIFICATION_TYPE": "U", "NORAD_CAT_ID": 66500, "ELEMENT_SET_NO": 999, "REV_AT_EPOCH": 582, "BSTAR": -0.05597659, "MEAN_MOTION_DOT": -0.01840966, "MEAN_MOTION_DDOT": 0}, "tle": {"line1": "1 66500U 25263R   25347.91667824 -.01840966  00000+0 -55977-1 0  9998", "line2": "2 66500  42.9996 118.6186 0001058 269.1523 335.3582 15.36681218  5826"}}, "geometry": {"type": "Point", "coordinates": [-111.35234701840085, 33.83592234850696]}}, {"type": "Feature", "properties": {"norad_id": 66501, "name": "STARLINK-35897", "group": "last-30-days", "lat": -33.04370259974584, "lon": -21.34161129674576, "alt_km": 446.0992157045057, "timestamp": "2025-12-14T14:39:28.131196+00:00", "meta": {"OBJECT_NAME": "STARLINK-35897", "OBJECT_ID": "2025-263S", "EPOCH": "2025-12-13T22:00:00.999936", "MEAN_MOTION": 15.40664974, "ECCENTRICITY": 0.00015381, "INCLINATION": 42.9999, "RA_OF_ASC_NODE": 118.387, "ARG_OF_PERICENTER": 276.3225, "MEAN_ANOMALY": 62.5229, "EPHEMERIS_TYPE": 0, "CLASSIFICATION_TYPE": "U", "NORAD_CAT_ID": 66501, "ELEMENT_SET_NO": 999, "REV_AT_EPOCH": 582, "BSTAR": 0.0013859614, "MEAN_MOTION_DOT": 0.00057965, "MEAN_MOTION_DDOT": 0}, "tle": {"line1": "1 66501U 25263S   25347.91667824  .00057965  00000+0  13860-2 0  9991", "line2": "2 66501  42.9999 118.3870 0001538 276.3225  62.5229 15.40664974  5821"}}, "geometry": {"type": "Point", "coordinates": [-21.34161129674576, -33.04370259974584]}}, {"type": "Feature", "properties": {"norad_id": 66502, "name": "STARLINK-35922", "group": "last-30-days", "lat": -16.726014817206114, "lon": 95.32327877335746, "alt_km": 415.5491243744, "timestamp": "2025-12-14T14:39:28.131206+00:00", "meta": {"OBJECT_NAME": "STARLINK-35922", "OBJECT_ID": "2025-263T", "EPOCH": "2025-12-13T18:40:05.847744", "MEAN_MOTION": 15.50532408, "ECCENTRICITY": 0.00014149, "INCLINATION": 43.0006, "RA_OF_ASC_NODE": 119.0096, "ARG_OF_PERICENTER": 287.71, "MEAN_ANOMALY": 72.3606, "EPHEMERIS_TYPE": 0, "CLASSIFICATION_TYPE": "U", "NORAD_CAT_ID": 66502, "ELEMENT_SET_NO": 999, "REV_AT_EPOCH": 572, "BSTAR": 0.0020202122, "MEAN_MOTION_DOT": 0.00119805, "MEAN_MOTION_DDOT": 0}, "tle": {"line1": "1 66502U 25263T   25347.77784546  .00119805  00000+0  20202-2 0  9997", "line2": "2 66502  43.0006 119.0096 0001414 287.7100  72.3606 15.50532408  5726"}}, "geometry": {"type": "Point", "coordinates": [95.32327877335746, -16.726014817206114]}}, {"type": "Feature", "properties": {"norad_id": 66503, "name": "STARLINK-35917", "group": "last-30-days", "lat": -42.978263589592366, "lon": 24.854643914689905, "alt_km": 446.1801913668096, "timestamp": "2025-12-14T14:39:28.131216+00:00", "meta": {"OBJECT_NAME": "STARLINK-35917", "OBJECT_ID": "2025-263U", "EPOCH": "2025-12-13T22:00:00.999936", "MEAN_MOTION": 15.40653191, "ECCENTRICITY": 0.00017068, "INCLINATION": 42.9999, "RA_OF_ASC_NODE": 118.2951, "ARG_OF_PERICENTER": 279.6006, "MEAN_ANOMALY": 96.6113, "EPHEMERIS_TYPE": 0, "CLASSIFICATION_TYPE": "U", "NORAD_CAT_ID": 66503, "ELEMENT_SET_NO": 999, "REV_AT_EPOCH": 582, "BSTAR": 0.0014574351, "MEAN_MOTION_DOT": 0.00060971, "MEAN_MOTION_DDOT": 0}, "tle": {"line1": "1 66503U 25263U   25347.91667824  .00060971  00000+0  14574-2 0  9997", "line2": "2 66503  42.9999 118.2951 0001706 279.6006  96.6113 15.40653191  5821"}}, "geometry": {"type": "Point", "coordinates": [24.854643914689905, -42.978263589592366]}}]}